******** Week 40 almanac for PRN-19 ********
ID:                         19
Health:                     000
Eccentricity:               0.9150505066E-002
Time of Applicability(s):  147456.0000
Orbital Inclination(rad):   0.9820616909
Rate of Right Ascen(r/s):  -0.7851755629E-008
SQRT(A)  (m 1/2):           5153.624512
Right Ascen at Week(rad):  -0.1780691787E+001
Argument of Perigee(rad):   1.549220977
Mean Anom(rad):             0.9402036396E-001
Af0(s):                    -0.2126693726E-003
Af1(s/s):                   0.3637978807E-011
week:                        40

******** Week 40 almanac for PRN-20 ********
ID:                         20
Health:                     000
Eccentricity:               0.5074501038E-002
Time of Applicability(s):  147456.0000
Orbital Inclination(rad):   0.9331301007
Rate of Right Ascen(r/s):  -0.8171768958E-008
SQRT(A)  (m 1/2):           5153.572266
Right Ascen at Week(rad):   0.8340758379E-001
Argument of Perigee(rad):   2.556349771
Mean Anom(rad):             0.1092195070E+001
Af0(s):                     0.5273818970E-003
Af1(s/s):                   0.0000000000E+000
week:                        40

******** Week 40 almanac for PRN-21 ********
ID:                         21
Health:                     000
Eccentricity:               0.2481126785E-001
Time of Applicability(s):  147456.0000
Orbital Inclination(rad):   0.9514180279
Rate of Right Ascen(r/s):  -0.8388920861E-008
SQRT(A)  (m 1/2):           5153.524902
Right Ascen at Week(rad):  -0.8987363489E+000
Argument of Perigee(rad):  -1.378519550
Mean Anom(rad):            -0.2837104208E+000
Af0(s):                    -0.5626678467E-004
Af1(s/s):                   0.7275957614E-011
week:                        40

******** Week 40 almanac for PRN-22 ********
ID:                         22
Health:                     000
Eccentricity:               0.6982803345E-002
Time of Applicability(s):  147456.0000
Orbital Inclination(rad):   0.9298224546
Rate of Right Ascen(r/s):  -0.8160339911E-008
SQRT(A)  (m 1/2):           5153.547852
Right Ascen at Week(rad):   0.1312954230E+000
Argument of Perigee(rad):  -1.239689794
Mean Anom(rad):             0.2808679499E+001
Af0(s):                    -0.7820129395E-003
Af1(s/s):                   0.0000000000E+000
week:                        40

******** Week 40 almanac for PRN-23 ********
ID:                         23
Health:                     000
Eccentricity:               0.1332092285E-001
Time of Applicability(s):  147456.0000
Orbital Inclination(rad):   0.9430889915
Rate of Right Ascen(r/s):  -0.7943188009E-008
SQRT(A)  (m 1/2):           5153.630371
Right Ascen at Week(rad):   0.1236695236E+001
Argument of Perigee(rad):  -2.207636540
Mean Anom(rad):             0.2287783291E+001
Af0(s):                    -0.1430511475E-003
Af1(s/s):                   0.3637978807E-011
week:                        40

******** Week 40 almanac for PRN-24 ********
ID:                         24
Health:                     000
Eccentricity:               0.9430885315E-002
Time of Applicability(s):  147456.0000
Orbital Inclination(rad):   0.9369231078
Rate of Right Ascen(r/s):  -0.8320346576E-008
SQRT(A)  (m 1/2):           5153.594727
Right Ascen at Week(rad):   0.2249332280E+001
Argument of Perigee(rad):   0.647345885
Mean Anom(rad):             0.1796378014E+001
Af0(s):                    -0.7629394531E-005
Af1(s/s):                   0.0000000000E+000
week:                        40

******** Week 40 almanac for PRN-25 ********
ID:                         25
Health:                     000
Eccentricity:               0.8908271790E-002
Time of Applicability(s):  147456.0000
Orbital Inclination(rad):   0.9677165737
Rate of Right Ascen(r/s):  -0.7703178011E-008
SQRT(A)  (m 1/2):           5153.561035
Right Ascen at Week(rad):  -0.2927528930E+001
Argument of Perigee(rad):   0.889463555
Mean Anom(rad):            -0.1010667137E+000
Af0(s):                    -0.1621246338E-004
Af1(s/s):                   0.0000000000E+000
week:                        40

******** Week 40 almanac for PRN-26 ********
ID:                         26
Health:                     000
Eccentricity:               0.4526138306E-002
Time of Applicability(s):  147456.0000
Orbital Inclination(rad):   0.9488593958
Rate of Right Ascen(r/s):  -0.7908900866E-008
SQRT(A)  (m 1/2):           5153.679199
Right Ascen at Week(rad):  -0.2960309156E+001
Argument of Perigee(rad):   0.167610246
Mean Anom(rad):            -0.7153814529E+000
Af0(s):                     0.1268386841E-003
Af1(s/s):                   0.7275957614E-011
week:                        40

******** Week 40 almanac for PRN-27 ********
ID:                         27
Health:                     000
Eccentricity:               0.7642745972E-002
Time of Applicability(s):  147456.0000
Orbital Inclination(rad):   0.9783046364
Rate of Right Ascen(r/s):  -0.7840326581E-008
SQRT(A)  (m 1/2):           5153.615723
Right Ascen at Week(rad):  -0.1884141114E+001
Argument of Perigee(rad):   0.496508685
Mean Anom(rad):            -0.2524079250E+001
Af0(s):                    -0.1802444458E-003
Af1(s/s):                  -0.1091393642E-010
week:                        40

******** Week 40 almanac for PRN-28 ********
ID:                         28
Health:                     000
Eccentricity:               0.1884651184E-001
Time of Applicability(s):  147456.0000
Orbital Inclination(rad):   0.9796229012
Rate of Right Ascen(r/s):  -0.7566029441E-008
SQRT(A)  (m 1/2):           5153.667969
Right Ascen at Week(rad):  -0.2837655857E+001
Argument of Perigee(rad):  -1.420817123
Mean Anom(rad):            -0.1816482675E+001
Af0(s):                     0.7457733154E-003
Af1(s/s):                  -0.3637978807E-011
week:                        40

******** Week 40 almanac for PRN-29 ********
ID:                         29
Health:                     000
Eccentricity:               0.1026153564E-002
Time of Applicability(s):  147456.0000
Orbital Inclination(rad):   0.9856030294
Rate of Right Ascen(r/s):  -0.7794610391E-008
SQRT(A)  (m 1/2):           5153.599609
Right Ascen at Week(rad):  -0.1815026966E+001
Argument of Perigee(rad):   1.974610777
Mean Anom(rad):            -0.2291313020E+001
Af0(s):                    -0.6675720215E-005
Af1(s/s):                  -0.1091393642E-010
week:                        40

******** Week 40 almanac for PRN-30 ********
ID:                         30
Health:                     000
Eccentricity:               0.4184722900E-002
Time of Applicability(s):  147456.0000
Orbital Inclination(rad):   0.9391282052
Rate of Right Ascen(r/s):  -0.8286059433E-008
SQRT(A)  (m 1/2):           5153.633789
Right Ascen at Week(rad):   0.2343914030E+001
Argument of Perigee(rad):  -2.930086439
Mean Anom(rad):             0.8444541767E+000
Af0(s):                    -0.1287460327E-003
Af1(s/s):                  -0.7275957614E-011
week:                        40

******** Week 40 almanac for PRN-31 ********
ID:                         31
Health:                     000
Eccentricity:               0.9658813477E-002
Time of Applicability(s):  147456.0000
Orbital Inclination(rad):   0.9582310597
Rate of Right Ascen(r/s):  -0.8080336578E-008
SQRT(A)  (m 1/2):           5153.699219
Right Ascen at Week(rad):   0.2334200067E+001
Argument of Perigee(rad):   0.103079314
Mean Anom(rad):             0.4877789260E+000
Af0(s):                    -0.1621246338E-004
Af1(s/s):                  -0.3637978807E-011
week:                        40

******** Week 40 almanac for PRN-32 ********
ID:                         32
Health:                     000
Eccentricity:               0.3419399261E-002
Time of Applicability(s):  147456.0000
Orbital Inclination(rad):   0.9564394181
Rate of Right Ascen(r/s):  -0.7817468486E-008
SQRT(A)  (m 1/2):           5153.616699
Right Ascen at Week(rad):   0.1251794985E+001
Argument of Perigee(rad):  -2.545838483
Mean Anom(rad):            -0.1753700316E+001
Af0(s):                     0.1840591431E-003
Af1(s/s):                   0.1091393642E-010
week:                        40
